GOES-16
1 41866U 16071A   25284.15461293 -.00000096  00000-0  00000+0 0  9997
2 41866   0.0697  65.6536 0002799 163.6692 101.6540  1.00271493 32605
FENGYUN-4A
1 41882U 16077A   25283.98948444 -.00000360  00000-0  00000+0 0  9993
2 41882   1.6852  82.9324 0005928 160.4142 256.5263  1.00272043 32437
FOX-1B (AO-91)
1 43017U 17073E   25284.06772630  .00009451  00000-0  45984-3 0  9997
2 43017  97.5005 151.7538 0167731 104.9888 256.9974 15.06986252427791
CANX-2
1 32790U 08021H   25283.86713322  .00005815  00000-0  43764-3 0  9990
2 32790  97.8363 254.7232 0011384 158.4790 201.6916 15.02871534947321
AIST-2 (RS-43)
1 39133U 13015D   25284.18276009  .00007223  00000-0  31595-3 0  9993
2 39133  64.8721 349.3733 0031285 264.7456  95.0103 15.22374099685946
NANOSATC-BR1
1 40024U 14033Q   25283.98964924  .00016141  00000-0  71236-3 0  9997
2 40024  98.0939 290.7967 0003666   4.1622 355.9642 15.21850964615957
QB50P1
1 40025U 14033R   25284.21309036  .00010105  00000-0  57965-3 0  9999
2 40025  98.0947 273.9306 0009965  10.0781 350.0646 15.12740291615318
QB50P2
1 40032U 14033Y   25283.43962573  .00009710  00000-0  59647-3 0  9990
2 40032  98.0573 260.9209 0006522 317.1671  42.9049 15.10295039614905
PERSEUS-M2
1 40037U 14033AD  25284.14444214  .00002232  00000-0  21319-3 0  9998
2 40037  97.9652 225.2993 0013554  50.0658 310.1751 14.94273088613574
PERSEUS-M1
1 40039U 14033AF  25283.79586221  .00002472  00000-0  23531-3 0  9999
2 40039  97.9362 219.4738 0013322  49.9357 310.3029 14.94295849613379
POLYITAN-1
1 40042U 14033AJ  25283.45626834  .00019717  00000-0  85193-3 0  9993
2 40042  98.1102 282.9097 0006601 307.9437  52.1200 15.22515564615453
TIGRISAT
1 40043U 14033AK  25283.85526396  .00003691  00000-0  44358-3 0  9992
2 40043  97.7523  75.3360 0050948 171.0523 189.1611 14.83627927608634
UKUBE-1
1 40074U 14037F   25284.18089529  .00011149  00000-0  73168-3 0  9997
2 40074  98.4091 257.5663 0001184  67.7959 292.3392 15.07850677610956
DEORBITSAIL
1 40719U 15032E   25284.13702865  .00008852  00000-0  73840-3 0  9993
2 40719  97.6239 140.9549 0010177 339.9564  20.1258 14.98774346553875
HORYU-IV
1 41340U 16012D   25283.97391617  .00038693  00000-0  81954-3 0  9994
2 41340  30.9968  18.6402 0003502 271.3218  88.7029 15.43850730531823
D-SAT
1 42794U 17036AF  25284.21260663  .00011503  00000-0  60844-3 0  9995
2 42794  97.5305 260.0540 0087801 303.5363  55.7504 15.12280884453165
CORVUS-BC2
1 42846U 17042X   25284.04610421  .00004287  00000-0  31447-3 0  9990
2 42846  97.3844  90.8524 0012245 240.3285 119.6723 15.03944132449588
CORVUS-BC1
1 42847U 17042Y   25283.94378639  .00005360  00000-0  38957-3 0  9997
2 42847  97.3885  91.3846 0011816 216.5724 143.4696 15.04185810449599
APRIZESAT-5 
1 37792U 11044E   25283.72507282  .00001633  00000-0  21658-3 0  9999
2 37792  98.2284 205.0521 0054499  85.8365 274.9072 14.80281046761878
APRIZESAT-6
1 37793U 11044F   25284.21103124  .00001130  00000-0  16828-3 0  9997
2 37793  98.2453 184.5334 0043927 160.4805 350.8919 14.76330127760405
APRIZESAT-7
1 39416U 13066A   25284.13075275  .00002199  00000-0  22800-3 0  9996
2 39416  97.7357 236.6119 0035429 319.0284  40.8273 14.90577315644113
APRIZESAT-8
1 39425U 13066K   25283.74505919  .00002126  00000-0  23981-3 0  9996
2 39425  97.7889 230.3090 0047518  28.4349 331.9444 14.86822108642599
BUGSAT-1 (TITA)
1 40014U 14033E   25284.21289425  .00006090  00000-0  35330-3 0  9996
2 40014  98.0622 357.6164 0029080 310.9176  48.9535 15.12213138618169
SAUDISAT-4
1 40016U 14033G   25283.38962666  .00001385  00000-0  19116-3 0  9996
2 40016  97.7248  73.7936 0045617 164.8259 195.4333 14.78985640609143
TABLETSAT-AURORA
1 40017U 14033H   25284.19484576  .00007061  00000-0  40117-3 0  9998
2 40017  98.0583 338.8797 0012168 352.1835   7.9203 15.13191081617495
APRIZESAT-9
1 40018U 14033J   25283.32721015  .00001042  00000-0  16229-3 0  9995
2 40018  97.8727  58.2577 0065482 283.9770  75.4163 14.73692310606756
APRIZESAT-10
1 40019U 14033K   25284.11461889  .00000698  00000-0  11811-3 0  9992
2 40019  97.9346  52.2037 0079152 350.1978   9.7680 14.70431869605644
AISAT
1 40054U 14034B   25284.17745773  .00012137  00000-0  92437-3 0  9999
2 40054  98.2532 174.4186 0010556 344.2276  15.8617 15.02196500609732
COSMOS-2407 [+]
1 28380U 04028A   25284.20877285  .00000065  00000-0  50805-4 0  9998
2 28380  82.9568 259.1946 0038074 227.3985 143.1968 13.76303910 65630
COSMOS-2414 [+]
1 28521U 05002A   25284.09884275  .00000091  00000-0  63498-4 0  9993
2 28521  82.9495 232.0184 0039285 321.5506  38.2859 13.87891230 49264
COSMOS-2463 [+]
1 36519U 10017A   25284.17632501  .00000070  00000-0  60030-4 0  9999
2 36519  82.9579  72.6769 0037456 100.7967  71.9898 13.71641591773791
NOAA-15
1 25338U 98030A   25284.14689258  .00000195  00000-0  97496-4 0  9999
2 25338  98.5291 306.2727 0010237   4.0852 356.0411 14.27033268425777
NOAA-18
1 28654U 05018A   25284.20310000  .00000153  00000-0  10413-3 0  9997
2 28654  98.8344   2.2439 0015021 135.9684 224.2687 14.13650057 51131
NOAA-19
1 33591U 09005A   25284.15864711  .00000071  00000-0  61744-4 0  9993
2 33591  98.9847 349.4837 0013985  18.9758 341.1932 14.13416755859305
SARAL
1 39086U 13009A   25284.15424478  .00000150  00000-0  71161-4 0  9991
2 39086  98.5541 108.8940 0001183 337.6143  22.4989 14.32724683659947
LAPAN-A3
1 41603U 16040E   25284.15387027  .00004210  00000-0  14352-3 0  9994
2 41603  97.1429 284.0174 0010743 176.8853 183.2458 15.30838620516680
BIROS
1 41604U 16040F   25284.03116573  .00066158  00000-0  48327-3 0  9996
2 41604  97.0775 313.8183 0005726  82.0432 278.1482 15.73030934518829
METOP-A
1 29499U 06044A   25284.22655060  .00003656  00000-0  43101-3 0  9996
2 29499  98.3297  18.4864 0178324 142.3572 281.0986 14.74636226988744
METEOR M1
1 35865U 09049A   25284.18524042  .00000167  00000-0  93627-4 0  9991
2 35865  98.7021 243.9632 0001654 339.8869  20.2244 14.23064361833836
METOP-B
1 38771U 12049A   25284.14289323  .00000146  00000-0  86992-4 0  9994
2 38771  98.6897 335.1317 0002159  13.0092 347.1141 14.21374226677889
METEOR M2
1 40069U 14037A   25284.16742865  .00000205  00000-0  11289-3 0  9995
2 40069  98.4826 264.1714 0006650  48.0407 312.1336 14.21348774583942
CSSWE
1 38761U 12048D   25284.06237950  .00021869  00000-0  65869-3 0  9996
2 38761  64.6631 208.2536 0102032 242.7562 116.3146 15.29299189 78108
MCUBED-2
1 39469U 13072H   25284.13918058  .00014275  00000-0  62168-3 0  9995
2 39469 120.4947 115.8634 0172219 104.3215 257.7040 15.10269841 80107
IPEX
1 39471U 13072K   25284.15866926  .00012761  00000-0  65940-3 0  9995
2 39471 120.4704  75.9945 0189072  94.0646 268.2052 15.02658545 77739
FOX-1A (AO-85)
1 40967U 15058D   25284.15927742  .00003554  00000-0  32616-3 0  9991
2 40967  64.7766 331.8411 0142568 153.3213 207.5328 14.89074327 76464
OOREOS
1 37224U 10062C   25284.15520301  .00003146  00000-0  31442-3 0  9996
2 37224  71.9698 283.8276 0014851 190.0246 170.0630 14.92147705 79471
STARS (KUKAI)
1 33498U 09002G   25283.76130114  .00005891  00000-0  57232-3 0  9996
2 33498  98.1283 216.7741 0006825 275.6071  84.4369 14.92990788901222
YUBELEINY-2 (RS-40)
1 38735U 12041C   25284.16844249  .00000025  00000-0  10957-3 0  9995
2 38735  82.4761 229.9377 0016124 251.1329 108.8003 12.42637558598917
AIST-1
1 39492U 13078C   25284.14173936  .00001734  00000-0  15592-3 0  9991
2 39492  82.4161 151.9677 0018224  36.2160 324.0290 14.94978552638025
VELOX-1
1 40057U 14034E   25284.17448358  .00007101  00000-0  66326-3 0  9994
2 40057  98.2729 170.3302 0008796  24.8345 335.3296 14.94469548609366
DX1
1 40071U 14037C   25284.19132149  .00003083  00000-0  33644-3 0  9995
2 40071  98.3532 226.5204 0007697  14.8848 345.2593 14.88713548609046
COSMOS-2491 (RS-46) [i]
1 39497U 13076E   25284.16140600  .00000017  00000-0  52897-4 0  9991
2 39497  82.4859 323.5696 0011792 273.7978  86.1753 12.43491427534309
COSMOS-2499 (RS-47) [i]
1 39765U 14028E   25284.10665962  .00000020  00000-0  39584-4 0  9996
2 39765  82.4487  60.5057 0231035 226.2188 131.9597 12.82896399533082
TRANSIT 5B-5
1   965U 64083D   25284.07617947  .00000082  00000-0  10259-3 0  9993
2   965  90.0705 201.1408 0039633 287.5979  83.9086 13.56980847  9835
EUTELSAT 1-F4 (ECS 4)
1 18351U 87078B   25284.08494190 -.00000124  00000-0  00000+0 0  9991
2 18351  14.0076 343.8601 0006478  29.7520 328.3499  0.98688385124294
BISONSAT
1 40968U 15058E   25284.11488784  .00004287  00000-0  35948-3 0  9991
2 40968  64.7760 317.4351 0131336 151.9396 208.8880 14.93244507 79430
DTUSAT-2
1 40030U 14033W   25283.42600096  .00010670  00000-0  65622-3 0  9993
2 40030  98.0697 261.4226 0009294  18.4750 341.6813 15.10204523614921
ELEKTRO-L2
1 41105U 15074A   25284.20126552 -.00000120  00000-0  00000+0 0  9995
2 41105   6.0638  73.5737 0003151 180.0337 184.3992  1.00272354 36010
DOVE-3
1 39429U 13066P   25284.19366610  .00003501  00000-0  47964-3 0  9998
2 39429  97.6909 151.5925 0119118 111.1902 250.2083 14.74232505634290
FORTE
1 24920U 97047A   25284.19771332  .00000313  00000-0  14972-3 0  9991
2 24920  69.9533 216.3514 0025089 259.6080 100.2214 14.27782736463145
DMSP 5D-2 F15/USA-147
1 25991U 99067A   25284.12811345  .00000200  00000-0  12135-3 0  9990
2 25991  99.0301 314.1788 0009735 357.4728  71.4916 14.17434448335360
CASSIOPE-1
1 39265U 13055A   25284.21261757  .00049675 -29661-6  71462-3 0  9996
2 39265  80.9411   4.7946 0363429 170.6217 190.2049 15.05453854629946
D-STAR ONE PHOENIX
1 43188U 18014J   25284.15577257  .00006857  00000-0  38907-3 0  9994
2 43188  97.5491 185.9476 0010272 145.4719 214.7181 15.13232407421058
S-NET D
1 43186U 18014G   25283.23005718  .00006584  00000-0  37396-3 0  9996
2 43186  97.5479 184.8864 0009518 151.1806 208.9952 15.13215044420916
TEN-KOH
1 43677U 18084G   25284.06920051  .00002759  00000-0  21981-3 0  9999
2 43677  98.0744 101.2197 0008377 203.0364 157.0485 15.01232196378766
